"","Fragment","ParasiteSpecies","ParasiteSex","BatSpecies","BatSex","Index1","Index2","Pool","DateExtracted","DateAmplified","AvLibraryConc","BatID","BatFamily","FeedingGuild","ParasiteFamily","Region","PubFragmentName","Area","Isolation","DistanceFromSource","AreaCluster","Area_Log2_Cluster","IsolationCluster","Isolation_Log2_Cluster","Area_Scaled_2","Isolation_Scaled_2","DtS_Scaled_2","HabitatType"
"Sample128_2","LI6","Trichobius joblingi","F","Carollia perspicillata","M","CGAGGCTG","CTATTAAG","HC",121017,51217,1.08,128,"Phyllostomidae","Frugivore","Streblidae","LIMI",NA,NA,NA,NA,NA,NA,NA,NA,NA,NA,NA,"Fragmented"
"Sample129","LI6","Paratrichobius longicrus","F","Artibeus lituratus","F","TAAGGCGA","TCGACTAG","HC",21017,51217,0.99,129,"Phyllostomidae","Frugivore","Streblidae","LIMI",NA,NA,NA,NA,NA,NA,NA,NA,NA,NA,NA,"Fragmented"
"Sample133","LI6","Basilia juquiensis","F","Myotis nigricans","M","CGTACTAG","CGTCTAAT","HC",21217,61217,1.7,133,"Vespertillionidae","Insectivore","Nycteribiidae","LIMI",NA,NA,NA,NA,NA,NA,NA,NA,NA,NA,NA,"Fragmented"
"Sample137_1","LI6","Basilia andersoni","F","Myotis nigricans","M","CGTACTAG","TCTCTCCG","HC",21217,61217,0.66,137,"Vespertillionidae","Insectivore","Nycteribiidae","LIMI",NA,NA,NA,NA,NA,NA,NA,NA,NA,NA,NA,"Fragmented"
"Sample102","LI6","Basilia juquiensis","M","Myotis nigricans","F","CGTACTAG","CTAAGCCT","LC",21217,61217,0.55,102,"Vespertillionidae","Insectivore","Nycteribiidae","LIMI",NA,NA,NA,NA,NA,NA,NA,NA,NA,NA,NA,"Fragmented"
"Sample137_3","LI6","Basilia juquiensis","M","Myotis nigricans","M","AGGCAGAA","TATCCTCT","HC",291117,61217,0.77,137,"Vespertillionidae","Insectivore","Nycteribiidae","LIMI",NA,NA,NA,NA,NA,NA,NA,NA,NA,NA,NA,"Fragmented"
"Sample137_2","LI6","Basilia juquiensis","F","Myotis nigricans","M","AGGCAGAA","CTCTCTAT","HC",21217,61217,0.59,137,"Vespertillionidae","Insectivore","Nycteribiidae","LIMI",NA,NA,NA,NA,NA,NA,NA,NA,NA,NA,NA,"Fragmented"
"Sample87_3","LI6","Basilia juquiensis","M","Myotis nigricans","M","CGTACTAG","ACTGCATA","HC",291117,61217,0.69,87,"Vespertillionidae","Insectivore","Nycteribiidae","LIMI",NA,NA,NA,NA,NA,NA,NA,NA,NA,NA,NA,"Fragmented"
"Sample126_1","LI6","Megistopoda proxima","","Sturnira lilium","F","GGACTCCT","CGTCTAAT","HC",180917,61217,1.1,126,"Phyllostomidae","Frugivore","Streblidae","LIMI",NA,NA,NA,NA,NA,NA,NA,NA,NA,NA,NA,"Fragmented"
"Sample87_1","LI6","Basilia juquiensis","M","Myotis nigricans","M","CGTACTAG","TATCCTCT","HC",291117,61217,0.76,87,"Vespertillionidae","Insectivore","Nycteribiidae","LIMI",NA,NA,NA,NA,NA,NA,NA,NA,NA,NA,NA,"Fragmented"
"Sample87_2","LI6","Basilia juquiensis","F","Myotis nigricans","M","CGTACTAG","GTAAGGAG","HC",291117,61217,0.62,87,"Vespertillionidae","Insectivore","Nycteribiidae","LIMI",NA,NA,NA,NA,NA,NA,NA,NA,NA,NA,NA,"Fragmented"
"Sample89_1","LI6","Trichobius joblingi","","Carollia perspicillata","M","CGAGGCTG","TTCTAGCT","HC",180917,51217,1.15,89,"Phyllostomidae","Frugivore","Streblidae","LIMI",NA,NA,NA,NA,NA,NA,NA,NA,NA,NA,NA,"Fragmented"
"Sample89_2","LI6","Trichobius joblingi","","Carollia perspicillata","M","CGAGGCTG","CCTAGAGT","HC",121017,51217,1.26,89,"Phyllostomidae","Frugivore","Streblidae","LIMI",NA,NA,NA,NA,NA,NA,NA,NA,NA,NA,NA,"Fragmented"
"Sample126_2","LI6","Megistopoda proxima","F","Sturnira lilium","F","GGACTCCT","TCTCTCCG","HC",31217,61217,0.66,126,"Phyllostomidae","Frugivore","Streblidae","LIMI",NA,NA,NA,NA,NA,NA,NA,NA,NA,NA,NA,"Fragmented"
"Sample126_4","LI6","Megistopoda proxima","M","Sturnira lilium","F","TAGGCATG","TATCCTCT","HC",31217,61217,1.06,126,"Phyllostomidae","Frugivore","Streblidae","LIMI",NA,NA,NA,NA,NA,NA,NA,NA,NA,NA,NA,"Fragmented"
"Sample99","LI6","Basilia andersoni","M","Myotis nigricans","M","CGTACTAG","AAGGAGTA","HC",21217,61217,0.86,99,"Vespertillionidae","Insectivore","Nycteribiidae","LIMI",NA,NA,NA,NA,NA,NA,NA,NA,NA,NA,NA,"Fragmented"
"Sample83_1","LI6","Basilia juquiensis","","Myotis nigricans","M","TAAGGCGA","TCTCTCCG","HC",180917,61217,0.75,83,"Vespertillionidae","Insectivore","Nycteribiidae","LIMI",NA,NA,NA,NA,NA,NA,NA,NA,NA,NA,NA,"Fragmented"
"Sample83_2","LI6","Basilia juquiensis","","Myotis nigricans","M","CGTACTAG","CTCTCTAT","HC",180917,61217,1.27,83,"Vespertillionidae","Insectivore","Nycteribiidae","LIMI",NA,NA,NA,NA,NA,NA,NA,NA,NA,NA,NA,"Fragmented"
"Sample143_1","LI8","Paratrichobius longicrus","M","Artibeus lituratus","F","TAAGGCGA","TTCTAGCT","HC",21017,51217,0.7,143,"Phyllostomidae","Frugivore","Streblidae","LIMI",NA,NA,NA,NA,NA,NA,NA,NA,NA,NA,NA,"Fragmented"
"Sample143_2","LI8","Paratrichobius longicrus","M","Artibeus lituratus","F","TAAGGCGA","CCTAGAGT","HC",21017,51217,0.66,143,"Phyllostomidae","Frugivore","Streblidae","LIMI",NA,NA,NA,NA,NA,NA,NA,NA,NA,NA,NA,"Fragmented"
"Sample144","LI8","Paratrichobius longicrus","M","Artibeus lituratus","F","TAAGGCGA","GCGTAAGA","HC",21017,51217,0.75,144,"Phyllostomidae","Frugivore","Streblidae","LIMI",NA,NA,NA,NA,NA,NA,NA,NA,NA,NA,NA,"Fragmented"
"Sample163_2","LI8","Basilia ferruginea","M","Myotis riparius","M","TCCTGAGC","GTAAGGAG","HC",21217,61217,0.79,163,"Vespertillionidae","Insectivore","Nycteribiidae","LIMI",NA,NA,NA,NA,NA,NA,NA,NA,NA,NA,NA,"Fragmented"
"Sample163_3","LI8","Basilia ferruginea","F","Myotis riparius","M","TCCTGAGC","ACTGCATA","HC",21217,61217,1.23,163,"Vespertillionidae","Insectivore","Nycteribiidae","LIMI",NA,NA,NA,NA,NA,NA,NA,NA,NA,NA,NA,"Fragmented"
"Sample165_1","LI8","Megistopoda proxima","F","Sturnira lilium","F","TAGGCATG","ACTGCATA","HC",31217,61217,0.71,165,"Phyllostomidae","Frugivore","Streblidae","LIMI",NA,NA,NA,NA,NA,NA,NA,NA,NA,NA,NA,"Fragmented"
"Sample165_5","LI8","Megistopoda proxima","M","Sturnira lilium","F","TAGGCATG","TCTCTCCG","HC",31217,61217,0.8,165,"Phyllostomidae","Frugivore","Streblidae","LIMI",NA,NA,NA,NA,NA,NA,NA,NA,NA,NA,NA,"Fragmented"
"Sample165_6","LI8","Megistopoda proxima","M","Sturnira lilium","F","CTCTCTAC","CTCTCTAT","HC",31217,61217,0.88,165,"Phyllostomidae","Frugivore","Streblidae","LIMI",NA,NA,NA,NA,NA,NA,NA,NA,NA,NA,NA,"Fragmented"
"Sample163_1","LI8","Basilia ferruginea","M","Myotis riparius","M","TCCTGAGC","TATCCTCT","HC",21217,61217,1.06,163,"Vespertillionidae","Insectivore","Nycteribiidae","LIMI",NA,NA,NA,NA,NA,NA,NA,NA,NA,NA,NA,"Fragmented"
"Sample147_2","LI8","Basilia lindolphoi","F","Myotis nigricans","F","AGGCAGAA","ACTGCATA","HC",21217,61217,0.7,147,"Vespertillionidae","Insectivore","Nycteribiidae","LIMI",NA,NA,NA,NA,NA,NA,NA,NA,NA,NA,NA,"Fragmented"
"Sample147_3","LI8","Basilia lindolphoi","F","Myotis nigricans","F","AGGCAGAA","AAGGAGTA","HC",21217,61217,2.32,147,"Vespertillionidae","Insectivore","Nycteribiidae","LIMI",NA,NA,NA,NA,NA,NA,NA,NA,NA,NA,NA,"Fragmented"
"Sample147_1","LI8","Basilia andersoni","M","Myotis nigricans","F","AGGCAGAA","GTAAGGAG","HC",291117,61217,0.63,147,"Vespertillionidae","Insectivore","Nycteribiidae","LIMI",NA,NA,NA,NA,NA,NA,NA,NA,NA,NA,NA,"Fragmented"
"Sample104_1","MI6","Basilia andersoni","F","Myotis nigricans","M","AGGCAGAA","CTAAGCCT","HC",21217,61217,0.6,104,"Vespertillionidae","Insectivore","Nycteribiidae","LIMI",NA,NA,NA,NA,NA,NA,NA,NA,NA,NA,NA,"Fragmented"
"Sample105_1","MI6","Basilia juquiensis","F","Myotis nigricans","M","AGGCAGAA","CGTCTAAT","HC",21217,61217,2.1,105,"Vespertillionidae","Insectivore","Nycteribiidae","LIMI",NA,NA,NA,NA,NA,NA,NA,NA,NA,NA,NA,"Fragmented"
"Sample105_2","MI6","Basilia juquiensis","M","Myotis nigricans","M","AGGCAGAA","TCTCTCCG","HC",21217,61217,1.63,105,"Vespertillionidae","Insectivore","Nycteribiidae","LIMI",NA,NA,NA,NA,NA,NA,NA,NA,NA,NA,NA,"Fragmented"
"Sample105_3","MI6","Basilia juquiensis","M","Myotis nigricans","M","TCCTGAGC","CTCTCTAT","HC",21217,61217,0.93,105,"Vespertillionidae","Insectivore","Nycteribiidae","LIMI",NA,NA,NA,NA,NA,NA,NA,NA,NA,NA,NA,"Fragmented"
"Sample312_2","REGUA","Trichobius furmani","M","Desmodus rotundus","F","ACTGAGCG","GTAAGGAG","HC",21217,61217,0.59,312,"Phyllostomidae","Sanguivore","Streblidae","REGArea","REGUA",62378.64,60,NA,"2","2","1","2",15.928764478484,5.90689059560852,NA,"Protected"
"Sample335_1","REGUA","Aspidoptera falcata","F","Sturnira lilium","","CTCTCTAC","TATCCTCT","HC",31217,61217,0.62,335,"Phyllostomidae","Frugivore","Streblidae","REGArea","REGUA",62378.64,60,NA,"2","2","1","2",15.928764478484,5.90689059560852,NA,"Protected"
"Sample736_2","REGUA","Basilia juquiensis","F","Artibeus lituratus","M","TAAGGCGA","GAGCCTTA","HC",21017,51217,1.28,736,"Phyllostomidae","Frugivore","Nycteribiidae","REGArea","REGUA",62378.64,60,NA,"2","2","1","2",15.928764478484,5.90689059560852,NA,"Protected"
"Sample314","REGUA","Strebla wiedemanni","M","Desmodus rotundus","M","ACTGAGCG","AAGGAGTA","HC",21217,61217,0.6,314,"Phyllostomidae","Sanguivore","Streblidae","REGArea","REGUA",62378.64,60,NA,"2","2","1","2",15.928764478484,5.90689059560852,NA,"Protected"
"Sample736_1","REGUA","Basilia juquiensis","M","Artibeus lituratus","M","TAAGGCGA","AAGGCTAT","HC",21017,51217,1.86,736,"Phyllostomidae","Frugivore","Nycteribiidae","REGArea","REGUA",62378.64,60,NA,"2","2","1","2",15.928764478484,5.90689059560852,NA,"Protected"
"Sample778","REGUA","Paratrichobius longicrus","M","Artibeus lituratus","M","CGTACTAG","CCTAGAGT","HC",41017,51217,0.73,778,"Phyllostomidae","Frugivore","Streblidae","REGArea","REGUA",62378.64,60,NA,"2","2","1","2",15.928764478484,5.90689059560852,NA,"Protected"
"Sample340_2","REGUA","Aspidoptera falcata","F","Sturnira lilium","M","CTCTCTAC","CGTCTAAT","HC",41217,61217,0.91,340,"Phyllostomidae","Frugivore","Streblidae","REGArea","REGUA",62378.64,60,NA,"2","2","1","2",15.928764478484,5.90689059560852,NA,"Protected"
"Sample336_1","REGUA","Megistopoda proxima","F","Sturnira lilium","","CTCTCTAC","ACTGCATA","HC",41217,61217,0.59,336,"Phyllostomidae","Frugivore","Streblidae","REGArea","REGUA",62378.64,60,NA,"2","2","1","2",15.928764478484,5.90689059560852,NA,"Protected"
"Sample312_3","REGUA","Strebla wiedemanni","M","Desmodus rotundus","F","ACTGAGCG","ACTGCATA","HC",21217,61217,0.81,312,"Phyllostomidae","Sanguivore","Streblidae","REGArea","REGUA",62378.64,60,NA,"2","2","1","2",15.928764478484,5.90689059560852,NA,"Protected"
"Sample773_1","REGUA","Strebla wiedemanni","F","Desmodus rotundus","M","ACTGAGCG","CTAAGCCT","HC",21217,61217,0.66,773,"Phyllostomidae","Sanguivore","Streblidae","REGArea","REGUA",62378.64,60,NA,"2","2","1","2",15.928764478484,5.90689059560852,NA,"Protected"
"Sample773_2","REGUA","Strebla wiedemanni","F","Desmodus rotundus","M","ACTGAGCG","CGTCTAAT","HC",21217,61217,0.69,773,"Phyllostomidae","Sanguivore","Streblidae","REGArea","REGUA",62378.64,60,NA,"2","2","1","2",15.928764478484,5.90689059560852,NA,"Protected"
"Sample340_3","REGUA","Aspidoptera falcata","F","Sturnira lilium","M","CTCTCTAC","TCTCTCCG","HC",41217,61217,0.9,340,"Phyllostomidae","Frugivore","Streblidae","REGArea","REGUA",62378.64,60,NA,"2","2","1","2",15.928764478484,5.90689059560852,NA,"Protected"
"Sample336_2","REGUA","Megistopoda proxima","F","Sturnira lilium","","CTCTCTAC","AAGGAGTA","HC",41217,61217,0.91,336,"Phyllostomidae","Frugivore","Streblidae","REGArea","REGUA",62378.64,60,NA,"2","2","1","2",15.928764478484,5.90689059560852,NA,"Protected"
"Sample775_2","REGUA","Paratrichobius longicrus","M","Artibeus lituratus","F","CGTACTAG","TTCTAGCT","HC",41017,51217,0.97,775,"Phyllostomidae","Frugivore","Streblidae","REGArea","REGUA",62378.64,60,NA,"2","2","1","2",15.928764478484,5.90689059560852,NA,"Protected"
"Sample312_1","REGUA","Trichobius furmani","F","Desmodus rotundus","F","ACTGAGCG","TATCCTCT","HC",21217,61217,0.99,312,"Phyllostomidae","Sanguivore","Streblidae","REGArea","REGUA",62378.64,60,NA,"2","2","1","2",15.928764478484,5.90689059560852,NA,"Protected"
"Sample774_1","REGUA","Strebla mirabilis","M","Desmodus rotundus","M","ACTGAGCG","TCTCTCCG","HC",21217,61217,0.78,774,"Phyllostomidae","Sanguivore","Streblidae","REGArea","REGUA",62378.64,60,NA,"2","2","1","2",15.928764478484,5.90689059560852,NA,"Protected"
"Sample736_3","REGUA","Basilia juquiensis","M","Artibeus lituratus","M","TAAGGCGA","TTATGCGA","HC",21017,51217,1.21,736,"Phyllostomidae","Frugivore","Nycteribiidae","REGArea","REGUA",62378.64,60,NA,"2","2","1","2",15.928764478484,5.90689059560852,NA,"Protected"
"Sample373_3","REGUA","Trichobius joblingi","M","Carollia perspicillata","M","AAGAGGCA","CCTAGAGT","HC",121017,51217,1.18,373,"Phyllostomidae","Frugivore","Streblidae","REGArea","REGUA",62378.64,60,NA,"2","2","1","2",15.928764478484,5.90689059560852,NA,"Protected"
"Sample377","REGUA","Metelasmus pseudopterus","","Artibeus lituratus","M","TAAGGCGA","CTATTAAG","HC",21017,51217,0.64,377,"Phyllostomidae","Frugivore","Streblidae","REGArea","REGUA",62378.64,60,NA,"2","2","1","2",15.928764478484,5.90689059560852,NA,"Protected"
"Sample774_2","REGUA","Strebla wiedemanni","M","Desmodus rotundus","M","CCTAAGAC","CTCTCTAT","HC",21217,61217,2.99,774,"Phyllostomidae","Sanguivore","Streblidae","REGArea","REGUA",62378.64,60,NA,"2","2","1","2",15.928764478484,5.90689059560852,NA,"Protected"
"Sample775_1","REGUA","Paratrichobius longicrus","F","Artibeus lituratus","F","CGTACTAG","TCGACTAG","HC",41017,51217,0.96,775,"Phyllostomidae","Frugivore","Streblidae","REGArea","REGUA",62378.64,60,NA,"2","2","1","2",15.928764478484,5.90689059560852,NA,"Protected"
"Sample373_1","REGUA","Trichobius dugesioides","F","Carollia perspicillata","M","AAGAGGCA","TCGACTAG","HC",121017,51217,1.4,373,"Phyllostomidae","Frugivore","Streblidae","REGArea","REGUA",62378.64,60,NA,"2","2","1","2",15.928764478484,5.90689059560852,NA,"Protected"
"Sample980_1","REGUA2","Paratrichobius longicrus","F","Artibeus lituratus","F","CGTACTAG","AAGGCTAT","HC",41017,51217,1.02,980,"Phyllostomidae","Frugivore","Streblidae","REGArea","REGUA2",62378.64,60,NA,"2","2","1","2",15.928764478484,5.90689059560852,NA,"Protected"
"Sample980_2","REGUA2","Paratrichobius longicrus","F","Artibeus lituratus","F","CGTACTAG","GAGCCTTA","HC",41017,51217,1.06,980,"Phyllostomidae","Frugivore","Streblidae","REGArea","REGUA2",62378.64,60,NA,"2","2","1","2",15.928764478484,5.90689059560852,NA,"Protected"
"Sample1006","REGUA2","Paratrichobius longicrus","M","Artibeus lituratus","M","CGTACTAG","TTATGCGA","HC",41017,51217,0.97,1006,"Phyllostomidae","Frugivore","Streblidae","REGArea","REGUA2",62378.64,60,NA,"2","2","1","2",15.928764478484,5.90689059560852,NA,"Protected"
"Sample1012","REGUA2","Strebla guajiro","F","Carollia perspicillata","M","GTAGAGGA","TCGACTAG","HC",121017,51217,1.41,1012,"Phyllostomidae","Frugivore","Streblidae","REGArea","REGUA2",62378.64,60,NA,"2","2","1","2",15.928764478484,5.90689059560852,NA,"Protected"
"Sample1033_2","REGUA2","Strebla guajiro","F","Carollia perspicillata","F","GTAGAGGA","CCTAGAGT","HC",121017,51217,1.43,1033,"Phyllostomidae","Frugivore","Streblidae","REGArea","REGUA2",62378.64,60,NA,"2","2","1","2",15.928764478484,5.90689059560852,NA,"Protected"
"Sample977_2","REGUA2","Trichobius joblingi","M","Carollia perspicillata","M","AAGAGGCA","GAGCCTTA","HC",121017,51217,1.23,977,"Phyllostomidae","Frugivore","Streblidae","REGArea","REGUA2",62378.64,60,NA,"2","2","1","2",15.928764478484,5.90689059560852,NA,"Protected"
"Sample1022","REGUA2","Paratrichobius longicrus","F","Artibeus lituratus","F","AGGCAGAA","TTCTAGCT","HC",41017,51217,0.91,1022,"Phyllostomidae","Frugivore","Streblidae","REGArea","REGUA2",62378.64,60,NA,"2","2","1","2",15.928764478484,5.90689059560852,NA,"Protected"
"Sample1033_1","REGUA2","Strebla guajiro","M","Carollia perspicillata","F","GTAGAGGA","TTCTAGCT","HC",121017,51217,0.72,1033,"Phyllostomidae","Frugivore","Streblidae","REGArea","REGUA2",62378.64,60,NA,"2","2","1","2",15.928764478484,5.90689059560852,NA,"Protected"
"Sample1015","REGUA2","Paratrichobius longicrus","F","Artibeus lituratus","F","AGGCAGAA","TCGACTAG","HC",41017,51217,1.71,1015,"Phyllostomidae","Frugivore","Streblidae","REGArea","REGUA2",62378.64,60,NA,"2","2","1","2",15.928764478484,5.90689059560852,NA,"Protected"
"Sample1017","REGUA2","Trichobius furmani","M","Desmodus rotundus","M","CCTAAGAC","TATCCTCT","HC",21217,61217,0.77,1017,"Phyllostomidae","Sanguivore","Streblidae","REGArea","REGUA2",62378.64,60,NA,"2","2","1","2",15.928764478484,5.90689059560852,NA,"Protected"
"Sample1068","REGUA2","Strebla wiedemanni","M","Desmodus rotundus","M","CCTAAGAC","GTAAGGAG","HC",21217,61217,0.62,1068,"Phyllostomidae","Sanguivore","Streblidae","REGArea","REGUA2",62378.64,60,NA,"2","2","1","2",15.928764478484,5.90689059560852,NA,"Protected"
"Sample1074","REGUA2","Strebla wiedemanni","M","Desmodus rotundus","F","CCTAAGAC","ACTGCATA","HC",21217,61217,0.75,1074,"Phyllostomidae","Sanguivore","Streblidae","REGArea","REGUA2",62378.64,60,NA,"2","2","1","2",15.928764478484,5.90689059560852,NA,"Protected"
"Sample973_2","REGUA2","Paratrichobius longicrus","F","Artibeus lituratus","F","CGTACTAG","CTATTAAG","HC",41017,51217,1.15,973,"Phyllostomidae","Frugivore","Streblidae","REGArea","REGUA2",62378.64,60,NA,"2","2","1","2",15.928764478484,5.90689059560852,NA,"Protected"
"Sample973_1","REGUA2","Paratrichobius longicrus","M","Artibeus lituratus","F","CGTACTAG","GCGTAAGA","LC",41017,51217,0.32,973,"Phyllostomidae","Frugivore","Streblidae","REGArea","REGUA2",62378.64,60,NA,"2","2","1","2",15.928764478484,5.90689059560852,NA,"Protected"
"Sample1079","REGUA2","Strebla wiedemanni","M","Desmodus rotundus","M","CCTAAGAC","AAGGAGTA","HC",21217,61217,0.69,1079,"Phyllostomidae","Sanguivore","Streblidae","REGArea","REGUA2",62378.64,60,NA,"2","2","1","2",15.928764478484,5.90689059560852,NA,"Protected"
"Sample1033_3","REGUA2","Trichobius joblingi","","Carollia perspicillata","F","GTAGAGGA","GCGTAAGA","HC",121017,51217,0.77,1033,"Phyllostomidae","Frugivore","Streblidae","REGArea","REGUA2",62378.64,60,NA,"2","2","1","2",15.928764478484,5.90689059560852,NA,"Protected"
"Sample1155_2","REGUA3","Aspidoptera falcata","M","Sturnira lilium","F","CGAGGCTG","ACTGCATA","LC",41217,61217,0.51,1155,"Phyllostomidae","Frugivore","Streblidae","REGArea","REGUA3",62378.64,60,NA,"2","2","1","2",15.928764478484,5.90689059560852,NA,"Protected"
"Sample1155_4","REGUA3","Aspidoptera falcata","F","Sturnira lilium","F","CGAGGCTG","CTAAGCCT","HC",41217,61217,0.83,1155,"Phyllostomidae","Frugivore","Streblidae","REGArea","REGUA3",62378.64,60,NA,"2","2","1","2",15.928764478484,5.90689059560852,NA,"Protected"
"Sample1111_5","REGUA3","Basilia juquiensis","F","Myotis nigricans","M","TAAGGCGA","CTCTCTAT","HC",291117,61217,0.63,1111,"Vespertillionidae","Insectivore","Nycteribiidae","REGArea","REGUA3",62378.64,60,NA,"2","2","1","2",15.928764478484,5.90689059560852,NA,"Protected"
"Sample1111_6","REGUA3","Basilia juquiensis","F","Myotis nigricans","M","TAAGGCGA","TATCCTCT","HC",291117,61217,0.94,1111,"Vespertillionidae","Insectivore","Nycteribiidae","REGArea","REGUA3",62378.64,60,NA,"2","2","1","2",15.928764478484,5.90689059560852,NA,"Protected"
"Sample1116_2","REGUA3","Strebla guajiro","M","Carollia perspicillata","M","GCTCATGA","TTCTAGCT","HC",211117,51217,0.86,1116,"Phyllostomidae","Frugivore","Streblidae","REGArea","REGUA3",62378.64,60,NA,"2","2","1","2",15.928764478484,5.90689059560852,NA,"Protected"
"Sample1127","REGUA3","Paratrichobius longicrus","F","Artibeus lituratus","M","AGGCAGAA","GAGCCTTA","HC",41017,51217,1.06,1127,"Phyllostomidae","Frugivore","Streblidae","REGArea","REGUA3",62378.64,60,NA,"2","2","1","2",15.928764478484,5.90689059560852,NA,"Protected"
"Sample1111_7","REGUA3","Basilia juquiensis","M","Myotis nigricans","M","TAAGGCGA","GTAAGGAG","HC",291117,61217,1.37,1111,"Vespertillionidae","Insectivore","Nycteribiidae","REGArea","REGUA3",62378.64,60,NA,"2","2","1","2",15.928764478484,5.90689059560852,NA,"Protected"
"Sample1155_1","REGUA3","Aspidoptera falcata","F","Sturnira lilium","F","CGAGGCTG","GTAAGGAG","HC",41217,61217,0.75,1155,"Phyllostomidae","Frugivore","Streblidae","REGArea","REGUA3",62378.64,60,NA,"2","2","1","2",15.928764478484,5.90689059560852,NA,"Protected"
"Sample1089_1","REGUA3","Paratrichobius longicrus","F","Artibeus lituratus","F","AGGCAGAA","CCTAGAGT","HC",41017,51217,1.06,1089,"Phyllostomidae","Frugivore","Streblidae","REGArea","REGUA3",62378.64,60,NA,"2","2","1","2",15.928764478484,5.90689059560852,NA,"Protected"
"Sample1089_2","REGUA3","Paratrichobius longicrus","M","Artibeus lituratus","F","AGGCAGAA","GCGTAAGA","LC",41017,51217,0.66,1089,"Phyllostomidae","Frugivore","Streblidae","REGArea","REGUA3",62378.64,60,NA,"2","2","1","2",15.928764478484,5.90689059560852,NA,"Protected"
"Sample1091_1","REGUA3","Trichobius joblingi","M","Carollia perspicillata","F","GTAGAGGA","AAGGCTAT","HC",121017,51217,1.26,1091,"Phyllostomidae","Frugivore","Streblidae","REGArea","REGUA3",62378.64,60,NA,"2","2","1","2",15.928764478484,5.90689059560852,NA,"Protected"
"Sample1114","REGUA3","Paratrichobius longicrus","F","Artibeus lituratus","F","AGGCAGAA","AAGGCTAT","HC",41017,51217,0.71,1114,"Phyllostomidae","Frugivore","Streblidae","REGArea","REGUA3",62378.64,60,NA,"2","2","1","2",15.928764478484,5.90689059560852,NA,"Protected"
"Sample1111_1","REGUA3","Basilia juquiensis","M","Myotis nigricans","M","TCGACGTC","AAGGAGTA","HC",291117,61217,1.19,1111,"Vespertillionidae","Insectivore","Nycteribiidae","REGArea","REGUA3",62378.64,60,NA,"2","2","1","2",15.928764478484,5.90689059560852,NA,"Protected"
"Sample1111_2","REGUA3","Basilia juquiensis","M","Myotis nigricans","M","TCGACGTC","CTAAGCCT","HC",291117,61217,1.35,1111,"Vespertillionidae","Insectivore","Nycteribiidae","REGArea","REGUA3",62378.64,60,NA,"2","2","1","2",15.928764478484,5.90689059560852,NA,"Protected"
"Sample1155_6","REGUA3","Aspidoptera falcata","F","Sturnira lilium","F","CGAGGCTG","TCTCTCCG","HC",41217,61217,0.94,1155,"Phyllostomidae","Frugivore","Streblidae","REGArea","REGUA3",62378.64,60,NA,"2","2","1","2",15.928764478484,5.90689059560852,NA,"Protected"
"Sample1141_1","REGUA3","Paratrichobius longicrus","M","Artibeus lituratus","F","AGGCAGAA","TTATGCGA","HC",41017,51217,1.8,1141,"Phyllostomidae","Frugivore","Streblidae","REGArea","REGUA3",62378.64,60,NA,"2","2","1","2",15.928764478484,5.90689059560852,NA,"Protected"
"Sample1141_2","REGUA3","Paratrichobius longicrus","M","Artibeus lituratus","F","TCCTGAGC","TCGACTAG","HC",41017,51217,1.1,1141,"Phyllostomidae","Frugivore","Streblidae","REGArea","REGUA3",62378.64,60,NA,"2","2","1","2",15.928764478484,5.90689059560852,NA,"Protected"
"Sample1086","REGUA3","Basilia juquiensis","M","Myotis nigricans","M","TCGACGTC","ACTGCATA","HC",291117,61217,1.24,1086,"Vespertillionidae","Insectivore","Nycteribiidae","REGArea","REGUA3",62378.64,60,NA,"2","2","1","2",15.928764478484,5.90689059560852,NA,"Protected"
"Sample1080_2","REGUA3","Megistopoda proxima","M","Sturnira lilium","M","CGAGGCTG","TATCCTCT","HC",41217,61217,1.07,1080,"Phyllostomidae","Frugivore","Streblidae","REGArea","REGUA3",62378.64,60,NA,"2","2","1","2",15.928764478484,5.90689059560852,NA,"Protected"
"Sample1155_5","REGUA3","Aspidoptera falcata","F","Sturnira lilium","F","CGAGGCTG","CGTCTAAT","HC",41217,61217,0.63,1155,"Phyllostomidae","Frugivore","Streblidae","REGArea","REGUA3",62378.64,60,NA,"2","2","1","2",15.928764478484,5.90689059560852,NA,"Protected"
"Sample1091_2","REGUA3","Strebla guajiro","M","Carollia perspicillata","F","GTAGAGGA","GAGCCTTA","HC",211117,51217,1.2,1091,"Phyllostomidae","Frugivore","Streblidae","REGArea","REGUA3",62378.64,60,NA,"2","2","1","2",15.928764478484,5.90689059560852,NA,"Protected"
"Sample315_2","T10","Trichobius joblingi","M","Carollia perspicillata","F","GCTCATGA","GCGTAAGA","HC",211117,51217,1.33,315,"Phyllostomidae","Frugivore","Streblidae","REGArea","F2",34.11,234.3074903,5453.124,"1","1","1","1",5.09212284983868,7.87225926453035,12.4128672463087,"Fragmented"
"Sample359_2","T10","Strebla wiedemanni","M","Desmodus rotundus","F","CGATCAGT","TATCCTCT","HC",21217,61217,0.72,359,"Phyllostomidae","Sanguivore","Streblidae","REGArea","F2",34.11,234.3074903,5453.124,"1","1","1","1",5.09212284983868,7.87225926453035,12.4128672463087,"Fragmented"
"Sample315_1","T10","Trichobius joblingi","M","Carollia perspicillata","F","GCTCATGA","CCTAGAGT","HC",211117,51217,1.34,315,"Phyllostomidae","Frugivore","Streblidae","REGArea","F2",34.11,234.3074903,5453.124,"1","1","1","1",5.09212284983868,7.87225926453035,12.4128672463087,"Fragmented"
"Sample359_1","T10","Strebla wiedemanni","M","Desmodus rotundus","F","CGATCAGT","CTCTCTAT","HC",21217,61217,1.53,359,"Phyllostomidae","Sanguivore","Streblidae","REGArea","F2",34.11,234.3074903,5453.124,"1","1","1","1",5.09212284983868,7.87225926453035,12.4128672463087,"Fragmented"
"Sample317_1","T10","Speiseria ambigua","F","Carollia perspicillata","F","GCTCATGA","AAGGCTAT","HC",211117,51217,1.01,317,"Phyllostomidae","Frugivore","Streblidae","REGArea","F2",34.11,234.3074903,5453.124,"1","1","1","1",5.09212284983868,7.87225926453035,12.4128672463087,"Fragmented"
"Sample360_1","T10","Aspidoptera falcata","F","Sturnira lilium","F","AAGAGGCA","GTAAGGAG","HC",41217,61217,0.66,360,"Phyllostomidae","Frugivore","Streblidae","REGArea","F2",34.11,234.3074903,5453.124,"1","1","1","1",5.09212284983868,7.87225926453035,12.4128672463087,"Fragmented"
"Sample317_2","T10","Trichobius joblingi","M","Carollia perspicillata","F","GCTCATGA","GAGCCTTA","HC",211117,51217,0.84,317,"Phyllostomidae","Frugivore","Streblidae","REGArea","F2",34.11,234.3074903,5453.124,"1","1","1","1",5.09212284983868,7.87225926453035,12.4128672463087,"Fragmented"
"Sample359_3","T10","Trichobius furmani","M","Desmodus rotundus","F","CGATCAGT","GTAAGGAG","HC",21217,61217,0.84,359,"Phyllostomidae","Sanguivore","Streblidae","REGArea","F2",34.11,234.3074903,5453.124,"1","1","1","1",5.09212284983868,7.87225926453035,12.4128672463087,"Fragmented"
"Sample362","T10","Strebla wiedemanni","F","Desmodus rotundus","F","CGATCAGT","ACTGCATA","HC",21217,61217,0.69,362,"Phyllostomidae","Sanguivore","Streblidae","REGArea","F2",34.11,234.3074903,5453.124,"1","1","1","1",5.09212284983868,7.87225926453035,12.4128672463087,"Fragmented"
"Sample352_2","T10","Megistopoda proxima","F","Sturnira lilium","F","AAGAGGCA","TATCCTCT","HC",41217,61217,1.05,352,"Phyllostomidae","Frugivore","Streblidae","REGArea","F2",34.11,234.3074903,5453.124,"1","1","1","1",5.09212284983868,7.87225926453035,12.4128672463087,"Fragmented"
"Sample349_1","T10","Speiseria ambigua","M","Carollia perspicillata","F","GCTCATGA","TTATGCGA","HC",211117,51217,2.22,349,"Phyllostomidae","Frugivore","Streblidae","REGArea","F2",34.11,234.3074903,5453.124,"1","1","1","1",5.09212284983868,7.87225926453035,12.4128672463087,"Fragmented"
"Sample309_2","T11","Strebla guajiro","F","Carollia perspicillata","M","ATCTCAGG","CTATTAAG","HC",211117,51217,0.93,309,"Phyllostomidae","Frugivore","Streblidae","REGArea","F3",41.04,84.85281374,3142.76,"1","1","1","2",5.35895882583233,6.40689059556796,11.6178163881604,"Fragmented"
"Sample308_2","T11","Trichobius joblingi","M","Carollia perspicillata","F","ATCTCAGG","CCTAGAGT","HC",211117,51217,3.56,308,"Phyllostomidae","Frugivore","Streblidae","REGArea","F3",41.04,84.85281374,3142.76,"1","1","1","2",5.35895882583233,6.40689059556796,11.6178163881604,"Fragmented"
"Sample745_1","T11","Strebla guajiro","F","Carollia perspicillata","M","ATCTCAGG","AAGGCTAT","HC",211117,51217,0.8,745,"Phyllostomidae","Frugivore","Streblidae","REGArea","F3",41.04,84.85281374,3142.76,"1","1","1","2",5.35895882583233,6.40689059556796,11.6178163881604,"Fragmented"
"Sample308_1","T11","Speiseria ambigua","F","Carollia perspicillata","F","ATCTCAGG","TTCTAGCT","HC",211117,51217,1.5,308,"Phyllostomidae","Frugivore","Streblidae","REGArea","F3",41.04,84.85281374,3142.76,"1","1","1","2",5.35895882583233,6.40689059556796,11.6178163881604,"Fragmented"
"Sample747","T11","Megistopoda proxima","F","Sturnira lilium","F","AAGAGGCA","TCTCTCCG","HC",41217,61217,0.59,747,"Phyllostomidae","Frugivore","Streblidae","REGArea","F3",41.04,84.85281374,3142.76,"1","1","1","2",5.35895882583233,6.40689059556796,11.6178163881604,"Fragmented"
"Sample746_2","T11","Basilia juquiensis","F","Myotis riparius","F","TCCTGAGC","CTAAGCCT","HC",21217,61217,1.03,746,"Vespertillionidae","Insectivore","Nycteribiidae","REGArea","F3",41.04,84.85281374,3142.76,"1","1","1","2",5.35895882583233,6.40689059556796,11.6178163881604,"Fragmented"
"Sample744_2","T11","Megistopoda proxima","F","Sturnira lilium","F","AAGAGGCA","CGTCTAAT","HC",41217,61217,0.62,744,"Phyllostomidae","Frugivore","Streblidae","REGArea","F3",41.04,84.85281374,3142.76,"1","1","1","2",5.35895882583233,6.40689059556796,11.6178163881604,"Fragmented"
"Sample746_1","T11","Basilia juquiensis","M","Myotis riparius","F","TCCTGAGC","AAGGAGTA","HC",21217,61217,1.22,746,"Vespertillionidae","Insectivore","Nycteribiidae","REGArea","F3",41.04,84.85281374,3142.76,"1","1","1","2",5.35895882583233,6.40689059556796,11.6178163881604,"Fragmented"
"Sample744_1","T11","Megistopoda proxima","F","Sturnira lilium","F","AAGAGGCA","CTAAGCCT","HC",41217,61217,0.64,744,"Phyllostomidae","Frugivore","Streblidae","REGArea","F3",41.04,84.85281374,3142.76,"1","1","1","2",5.35895882583233,6.40689059556796,11.6178163881604,"Fragmented"
"Sample472_2","T12","Paratrichobius longicrus","M","Artibeus lituratus","F","TCCTGAGC","CCTAGAGT","HC",41017,51217,1.38,472,"Phyllostomidae","Frugivore","Streblidae","REGArea","F9",184.77,174.9285568,7525.56,"1","1","1","1",7.52958672377619,7.4506220158596,12.8775832258916,"Fragmented"
"Sample474_1","T12","Paratrichobius longicrus","M","Artibeus lituratus","F","TCCTGAGC","GCGTAAGA","HC",41017,51217,1.19,474,"Phyllostomidae","Frugivore","Streblidae","REGArea","F9",184.77,174.9285568,7525.56,"1","1","1","1",7.52958672377619,7.4506220158596,12.8775832258916,"Fragmented"
"Sample498_1","T12","Paratrichobius longicrus","M","Artibeus lituratus","M","TCCTGAGC","AAGGCTAT","HC",41017,51217,1.02,498,"Phyllostomidae","Frugivore","Streblidae","REGArea","F9",184.77,174.9285568,7525.56,"1","1","1","1",7.52958672377619,7.4506220158596,12.8775832258916,"Fragmented"
"Sample485_3","T12","Trichobius joblingi","","Carollia perspicillata","F","ACTCGCTA","TATCCTCT","HC",211117,61217,0.87,485,"Phyllostomidae","Frugivore","Streblidae","REGArea","F9",184.77,174.9285568,7525.56,"1","1","1","1",7.52958672377619,7.4506220158596,12.8775832258916,"Fragmented"
"Sample608_2","T12","Trichobius joblingi","F","Carollia perspicillata","F","ACTCGCTA","ACTGCATA","HC",241117,61217,0.59,608,"Phyllostomidae","Frugivore","Streblidae","REGArea","F9",184.77,174.9285568,7525.56,"1","1","1","1",7.52958672377619,7.4506220158596,12.8775832258916,"Fragmented"
"Sample474_2","T12","Paratrichobius longicrus","M","Artibeus lituratus","F","TCCTGAGC","CTATTAAG","HC",41017,51217,1.33,474,"Phyllostomidae","Frugivore","Streblidae","REGArea","F9",184.77,174.9285568,7525.56,"1","1","1","1",7.52958672377619,7.4506220158596,12.8775832258916,"Fragmented"
"Sample631","T12","Paratrichobius longicrus","M","Artibeus lituratus","F","TCCTGAGC","TTATGCGA","HC",41017,51217,0.99,631,"Phyllostomidae","Frugivore","Streblidae","REGArea","F9",184.77,174.9285568,7525.56,"1","1","1","1",7.52958672377619,7.4506220158596,12.8775832258916,"Fragmented"
"Sample608_1","T12","Speiseria ambigua","M","Carollia perspicillata","F","ACTCGCTA","GTAAGGAG","HC",211117,61217,0.68,608,"Phyllostomidae","Frugivore","Streblidae","REGArea","F9",184.77,174.9285568,7525.56,"1","1","1","1",7.52958672377619,7.4506220158596,12.8775832258916,"Fragmented"
"Sample485_1","T12","Strebla guajiro","","Carollia perspicillata","F","ATCTCAGG","TTATGCGA","HC",211117,51217,1.34,485,"Phyllostomidae","Frugivore","Streblidae","REGArea","F9",184.77,174.9285568,7525.56,"1","1","1","1",7.52958672377619,7.4506220158596,12.8775832258916,"Fragmented"
"Sample608_3","T12","Trichobius joblingi","","Carollia perspicillata","F","ACTCGCTA","AAGGAGTA","HC",241117,61217,1.06,608,"Phyllostomidae","Frugivore","Streblidae","REGArea","F9",184.77,174.9285568,7525.56,"1","1","1","1",7.52958672377619,7.4506220158596,12.8775832258916,"Fragmented"
"Sample485_2","T12","Speiseria ambigua","M","Carollia perspicillata","F","ACTCGCTA","CTCTCTAT","LC",211117,61217,0.46,485,"Phyllostomidae","Frugivore","Streblidae","REGArea","F9",184.77,174.9285568,7525.56,"1","1","1","1",7.52958672377619,7.4506220158596,12.8775832258916,"Fragmented"
"Sample613_1","T12","Strebla guajiro","M","Carollia perspicillata","M","ACTCGCTA","CTAAGCCT","HC",241117,61217,1.38,613,"Phyllostomidae","Frugivore","Streblidae","REGArea","F9",184.77,174.9285568,7525.56,"1","1","1","1",7.52958672377619,7.4506220158596,12.8775832258916,"Fragmented"
"Sample472_1","T12","Paratrichobius longicrus","F","Artibeus lituratus","F","TCCTGAGC","TTCTAGCT","HC",41017,51217,0.85,472,"Phyllostomidae","Frugivore","Streblidae","REGArea","F9",184.77,174.9285568,7525.56,"1","1","1","1",7.52958672377619,7.4506220158596,12.8775832258916,"Fragmented"
"Sample610_2","T12","Basilia juquiensis","M","Myotis nigricans","M","TAAGGCGA","AAGGAGTA","HC",291117,61217,1.14,610,"Vespertillionidae","Insectivore","Nycteribiidae","REGArea","F9",184.77,174.9285568,7525.56,"1","1","1","1",7.52958672377619,7.4506220158596,12.8775832258916,"Fragmented"
"Sample591_1","T13","Basilia juquiensis","F","Myotis riparius","F","GGACTCCT","CTCTCTAT","HC",21217,61217,0.75,591,"Vespertillionidae","Insectivore","Nycteribiidae","REGArea","F5",84.33,150,8520.907,"1","1","1","1",6.39797404932677,7.22881869049588,13.0567912896152,"Fragmented"
"Sample645_1","T13","Trichobius joblingi","F","Carollia perspicillata","F","GGAGCTAC","GTAAGGAG","HC",241117,61217,0.72,645,"Phyllostomidae","Frugivore","Streblidae","REGArea","F5",84.33,150,8520.907,"1","1","1","1",6.39797404932677,7.22881869049588,13.0567912896152,"Fragmented"
"Sample588_1","T13","Paratrichobius longicrus","F","Artibeus lituratus","M","GGACTCCT","TTCTAGCT","HC",41017,51217,1.09,588,"Phyllostomidae","Frugivore","Streblidae","REGArea","F5",84.33,150,8520.907,"1","1","1","1",6.39797404932677,7.22881869049588,13.0567912896152,"Fragmented"
"Sample588_2","T13","Paratrichobius longicrus","M","Artibeus lituratus","M","GGACTCCT","CCTAGAGT","HC",41017,51217,1.33,588,"Phyllostomidae","Frugivore","Streblidae","REGArea","F5",84.33,150,8520.907,"1","1","1","1",6.39797404932677,7.22881869049588,13.0567912896152,"Fragmented"
"Sample591_3","T13","Basilia juquiensis","M","Myotis riparius","F","GGACTCCT","GTAAGGAG","HC",21217,61217,2.11,591,"Vespertillionidae","Insectivore","Nycteribiidae","REGArea","F5",84.33,150,8520.907,"1","1","1","1",6.39797404932677,7.22881869049588,13.0567912896152,"Fragmented"
"Sample591_2","T13","Basilia juquiensis","M","Myotis riparius","F","GGACTCCT","TATCCTCT","HC",21217,61217,0.75,591,"Vespertillionidae","Insectivore","Nycteribiidae","REGArea","F5",84.33,150,8520.907,"1","1","1","1",6.39797404932677,7.22881869049588,13.0567912896152,"Fragmented"
"Sample620_1","T13","Speiseria ambigua","F","Carollia perspicillata","M","GGAGCTAC","CTCTCTAT","HC",241117,61217,0.61,620,"Phyllostomidae","Frugivore","Streblidae","REGArea","F5",84.33,150,8520.907,"1","1","1","1",6.39797404932677,7.22881869049588,13.0567912896152,"Fragmented"
"Sample622","T13","Paratrichobius longicrus","M","Artibeus lituratus","M","GGACTCCT","GCGTAAGA","HC",41017,51217,0.97,622,"Phyllostomidae","Frugivore","Streblidae","REGArea","F5",84.33,150,8520.907,"1","1","1","1",6.39797404932677,7.22881869049588,13.0567912896152,"Fragmented"
"Sample576","T13","Paratrichobius longicrus","M","Artibeus lituratus","M","GGACTCCT","TCGACTAG","LC",41017,51217,0.5,576,"Phyllostomidae","Frugivore","Streblidae","REGArea","F5",84.33,150,8520.907,"1","1","1","1",6.39797404932677,7.22881869049588,13.0567912896152,"Fragmented"
"Sample620_2","T13","Trichobius joblingi","M","Carollia perspicillata","M","GGAGCTAC","TATCCTCT","HC",241117,61217,1.28,620,"Phyllostomidae","Frugivore","Streblidae","REGArea","F5",84.33,150,8520.907,"1","1","1","1",6.39797404932677,7.22881869049588,13.0567912896152,"Fragmented"
"Sample591_4","T13","Basilia juquiensis","M","Myotis riparius","F","GGACTCCT","ACTGCATA","LC",21217,61217,0.27,591,"Vespertillionidae","Insectivore","Nycteribiidae","REGArea","F5",84.33,150,8520.907,"1","1","1","1",6.39797404932677,7.22881869049588,13.0567912896152,"Fragmented"
"Sample235_1","T19","Megistopoda proxima","M","Sturnira lilium","F","GTAGAGGA","TATCCTCT","HC",41217,61217,0.76,235,"Phyllostomidae","Frugivore","Streblidae","REGArea","F8",117.27,134.1640786,357.26,"1","1","1","1",6.87369018023572,7.06785464251467,8.48083058387677,"Fragmented"
"Sample235_2","T19","Aspidoptera falcata","F","Sturnira lilium","F","GTAGAGGA","GTAAGGAG","HC",41217,61217,0.76,235,"Phyllostomidae","Frugivore","Streblidae","REGArea","F8",117.27,134.1640786,357.26,"1","1","1","1",6.87369018023572,7.06785464251467,8.48083058387677,"Fragmented"
"Sample338","T19","Trichobius joblingi","F","Sturnira lilium","F","GTAGAGGA","CGTCTAAT","HC",41217,61217,0.63,338,"Phyllostomidae","Frugivore","Streblidae","REGArea","F8",117.27,134.1640786,357.26,"1","1","1","1",6.87369018023572,7.06785464251467,8.48083058387677,"Fragmented"
"Sample190_1","T19","Speiseria ambigua","M","Carollia perspicillata","F","GGAGCTAC","CGTCTAAT","LC",241117,61217,0.4,190,"Phyllostomidae","Frugivore","Streblidae","REGArea","F8",117.27,134.1640786,357.26,"1","1","1","1",6.87369018023572,7.06785464251467,8.48083058387677,"Fragmented"
"Sample235_3","T19","Aspidoptera falcata","M","Sturnira lilium","F","GTAGAGGA","ACTGCATA","HC",41217,61217,0.84,235,"Phyllostomidae","Frugivore","Streblidae","REGArea","F8",117.27,134.1640786,357.26,"1","1","1","1",6.87369018023572,7.06785464251467,8.48083058387677,"Fragmented"
"Sample226_3","T19","Speiseria ambigua","M","Carollia perspicillata","F","GCGTAGTA","ACTGCATA","HC",241117,61217,0.63,226,"Phyllostomidae","Frugivore","Streblidae","REGArea","F8",117.27,134.1640786,357.26,"1","1","1","1",6.87369018023572,7.06785464251467,8.48083058387677,"Fragmented"
"Sample226_1","T19","Trichobius joblingi","F","Carollia perspicillata","F","GCGTAGTA","TATCCTCT","HC",241117,61217,0.69,226,"Phyllostomidae","Frugivore","Streblidae","REGArea","F8",117.27,134.1640786,357.26,"1","1","1","1",6.87369018023572,7.06785464251467,8.48083058387677,"Fragmented"
"Sample236_2","T19","Strebla guajiro","M","Carollia perspicillata","F","GCGTAGTA","CTAAGCCT","HC",251171,61217,0.73,236,"Phyllostomidae","Frugivore","Streblidae","REGArea","F8",117.27,134.1640786,357.26,"1","1","1","1",6.87369018023572,7.06785464251467,8.48083058387677,"Fragmented"
"Sample238_1","T19","Megistopoda proxima","M","Sturnira lilium","F","GTAGAGGA","AAGGAGTA","HC",41217,61217,0.6,238,"Phyllostomidae","Frugivore","Streblidae","REGArea","F8",117.27,134.1640786,357.26,"1","1","1","1",6.87369018023572,7.06785464251467,8.48083058387677,"Fragmented"
"Sample236_1","T19","Speiseria ambigua","F","Carollia perspicillata","F","GCGTAGTA","AAGGAGTA","HC",241117,61217,0.77,236,"Phyllostomidae","Frugivore","Streblidae","REGArea","F8",117.27,134.1640786,357.26,"1","1","1","1",6.87369018023572,7.06785464251467,8.48083058387677,"Fragmented"
"Sample190_3","T19","Trichobius dugesioides","M","Carollia perspicillata","F","GCGTAGTA","CTCTCTAT","HC",241117,61217,1.05,190,"Phyllostomidae","Frugivore","Streblidae","REGArea","F8",117.27,134.1640786,357.26,"1","1","1","1",6.87369018023572,7.06785464251467,8.48083058387677,"Fragmented"
"Sample168_2","T19","Trichobius dugesioides","F","Carollia perspicillata","","GGAGCTAC","AAGGAGTA","LC",241117,61217,0.63,168,"Phyllostomidae","Frugivore","Streblidae","REGArea","F8",117.27,134.1640786,357.26,"1","1","1","1",6.87369018023572,7.06785464251467,8.48083058387677,"Fragmented"
"Sample168_1","T19","Strebla guajiro","F","Carollia perspicillata","","GGAGCTAC","CTAAGCCT","LC",241117,61217,0.48,168,"Phyllostomidae","Frugivore","Streblidae","REGArea","F8",117.27,134.1640786,357.26,"1","1","1","1",6.87369018023572,7.06785464251467,8.48083058387677,"Fragmented"
"Sample305_1","T19","Paraeuctenodes similis","M","Carollia perspicillata","F","GCGTAGTA","CGTCTAAT","HC",251171,61217,1.26,305,"Phyllostomidae","Frugivore","Streblidae","REGArea","F8",117.27,134.1640786,357.26,"1","1","1","1",6.87369018023572,7.06785464251467,8.48083058387677,"Fragmented"
"Sample190_2","T19","Speiseria ambigua","F","Carollia perspicillata","F","GGAGCTAC","TCTCTCCG","HC",241117,61217,1.04,190,"Phyllostomidae","Frugivore","Streblidae","REGArea","F8",117.27,134.1640786,357.26,"1","1","1","1",6.87369018023572,7.06785464251467,8.48083058387677,"Fragmented"
"Sample770_3","T2","Trichobius joblingi","M","Artibeus lituratus","F","GGACTCCT","GAGCCTTA","HC",41017,51217,1.11,770,"Phyllostomidae","Frugivore","Streblidae","REGArea","F6",92.34,210,2569.115,"1","1","1","1",6.52888382727464,7.71424551766612,11.3270557549773,"Fragmented"
"Sample770_4","T2","Trichobius joblingi","M","Artibeus lituratus","F","GGACTCCT","TTATGCGA","LC",41017,51217,0.31,770,"Phyllostomidae","Frugivore","Streblidae","REGArea","F6",92.34,210,2569.115,"1","1","1","1",6.52888382727464,7.71424551766612,11.3270557549773,"Fragmented"
"Sample770_2","T2","Speiseria ambigua","M","Artibeus lituratus","F","GGACTCCT","AAGGCTAT","HC",41017,51217,2.04,770,"Phyllostomidae","Frugivore","Streblidae","REGArea","F6",92.34,210,2569.115,"1","1","1","1",6.52888382727464,7.71424551766612,11.3270557549773,"Fragmented"
"Sample770_6","T2","Trichobius joblingi","M","Artibeus lituratus","F","TAGGCATG","TTCTAGCT","LC",41017,51217,0.38,770,"Phyllostomidae","Frugivore","Streblidae","REGArea","F6",92.34,210,2569.115,"1","1","1","1",6.52888382727464,7.71424551766612,11.3270557549773,"Fragmented"
"Sample770_1","T2","Speiseria ambigua","F","Artibeus lituratus","F","GGACTCCT","CTATTAAG","HC",41017,51217,0.76,770,"Phyllostomidae","Frugivore","Streblidae","REGArea","F6",92.34,210,2569.115,"1","1","1","1",6.52888382727464,7.71424551766612,11.3270557549773,"Fragmented"
"Sample795_1","T2","Trichobius joblingi","M","Carollia perspicillata","F","CGGAGCCT","CTCTCTAT","HC",251171,61217,0.76,795,"Phyllostomidae","Frugivore","Streblidae","REGArea","F6",92.34,210,2569.115,"1","1","1","1",6.52888382727464,7.71424551766612,11.3270557549773,"Fragmented"
"Sample763","T2","Paratrichobius longicrus","M","Carollia perspicillata","F","GCGTAGTA","TCTCTCCG","HC",251171,61217,1.27,763,"Phyllostomidae","Frugivore","Streblidae","REGArea","F6",92.34,210,2569.115,"1","1","1","1",6.52888382727464,7.71424551766612,11.3270557549773,"Fragmented"
"Sample770_5","T2","Trichobius joblingi","M","Artibeus lituratus","F","TAGGCATG","TCGACTAG","HC",41017,51217,1.13,770,"Phyllostomidae","Frugivore","Streblidae","REGArea","F6",92.34,210,2569.115,"1","1","1","1",6.52888382727464,7.71424551766612,11.3270557549773,"Fragmented"
"Sample392_2","T21","Trichobius joblingi","F","Carollia perspicillata","F","CGGAGCCT","CGTCTAAT","HC",251171,61217,0.6,392,"Phyllostomidae","Frugivore","Streblidae","REGArea","F7",99.99,349.8571137,6753.698,"1","1","2","3",6.64371191305668,8.45062201627196,12.721461953548,"Fragmented"
"Sample396_1","T21","Strebla guajiro","F","Carollia perspicillata","F","CGGAGCCT","TCTCTCCG","HC",251171,61217,1.37,396,"Phyllostomidae","Frugivore","Streblidae","REGArea","F7",99.99,349.8571137,6753.698,"1","1","2","3",6.64371191305668,8.45062201627196,12.721461953548,"Fragmented"
"Sample416","T21","Paratrichobius longicrus","M","Artibeus lituratus","F","TAGGCATG","GCGTAAGA","LC",41017,51217,0.57,416,"Phyllostomidae","Frugivore","Streblidae","REGArea","F7",99.99,349.8571137,6753.698,"1","1","2","3",6.64371191305668,8.45062201627196,12.721461953548,"Fragmented"
"Sample388_1","T21","Trichobius dugesioides","F","Carollia perspicillata","F","CGGAGCCT","ACTGCATA","HC",251171,61217,0.72,388,"Phyllostomidae","Frugivore","Streblidae","REGArea","F7",99.99,349.8571137,6753.698,"1","1","2","3",6.64371191305668,8.45062201627196,12.721461953548,"Fragmented"
"Sample389_1","T21","Aspidoptera falcata","M","Sturnira lilium","F","GTAGAGGA","TCTCTCCG","HC",41217,61217,0.77,389,"Phyllostomidae","Frugivore","Streblidae","REGArea","F7",99.99,349.8571137,6753.698,"1","1","2","3",6.64371191305668,8.45062201627196,12.721461953548,"Fragmented"
"Sample390","T21","Speiseria ambigua","M","Carollia perspicillata","F","CGGAGCCT","AAGGAGTA","HC",251171,61217,1.17,390,"Phyllostomidae","Frugivore","Streblidae","REGArea","F7",99.99,349.8571137,6753.698,"1","1","2","3",6.64371191305668,8.45062201627196,12.721461953548,"Fragmented"
"Sample392_1","T21","Strebla guajiro","F","Carollia perspicillata","F","CGGAGCCT","CTAAGCCT","HC",251171,61217,1.18,392,"Phyllostomidae","Frugivore","Streblidae","REGArea","F7",99.99,349.8571137,6753.698,"1","1","2","3",6.64371191305668,8.45062201627196,12.721461953548,"Fragmented"
"Sample389_4","T21","Aspidoptera falcata","M","Sturnira lilium","F","GCTCATGA","GTAAGGAG","HC",41217,61217,0.74,389,"Phyllostomidae","Frugivore","Streblidae","REGArea","F7",99.99,349.8571137,6753.698,"1","1","2","3",6.64371191305668,8.45062201627196,12.721461953548,"Fragmented"
"Sample389_2","T21","Aspidoptera falcata","F","Sturnira lilium","F","GCTCATGA","CTCTCTAT","HC",41217,61217,0.76,389,"Phyllostomidae","Frugivore","Streblidae","REGArea","F7",99.99,349.8571137,6753.698,"1","1","2","3",6.64371191305668,8.45062201627196,12.721461953548,"Fragmented"
"Sample675_1","T21","Strebla guajiro","M","Carollia perspicillata","F","TACGCTGC","AAGGAGTA","HC",271117,61217,1.28,675,"Phyllostomidae","Frugivore","Streblidae","REGArea","F7",99.99,349.8571137,6753.698,"1","1","2","3",6.64371191305668,8.45062201627196,12.721461953548,"Fragmented"
"Sample389_5","T21","Megistopoda proxima","F","Sturnira lilium","F","GCTCATGA","ACTGCATA","HC",41217,61217,0.87,389,"Phyllostomidae","Frugivore","Streblidae","REGArea","F7",99.99,349.8571137,6753.698,"1","1","2","3",6.64371191305668,8.45062201627196,12.721461953548,"Fragmented"
"Sample389_3","T21","Aspidoptera falcata","F","Sturnira lilium","F","GCTCATGA","TATCCTCT","HC",41217,61217,0.86,389,"Phyllostomidae","Frugivore","Streblidae","REGArea","F7",99.99,349.8571137,6753.698,"1","1","2","3",6.64371191305668,8.45062201627196,12.721461953548,"Fragmented"
"Sample430_1","T21","Strebla guajiro","F","Carollia perspicillata","F","TACGCTGC","ACTGCATA","HC",271117,61217,1.14,430,"Phyllostomidae","Frugivore","Streblidae","REGArea","F7",99.99,349.8571137,6753.698,"1","1","2","3",6.64371191305668,8.45062201627196,12.721461953548,"Fragmented"
"Sample919_1","T23","Basilia juquiensis","M","Myotis nigricans","F","TAAGGCGA","CTAAGCCT","HC",291117,61217,1.09,919,"Vespertillionidae","Insectivore","Nycteribiidae","REGArea","F4",52.11,362.4913792,6557.559,"1","1","2","3",5.70348834965682,8.50180287501734,12.6789431674992,"Fragmented"
"Sample909_1","T23","Trichobius joblingi","F","Carollia perspicillata","M","TACGCTGC","CTAAGCCT","HC",271117,61217,0.72,909,"Phyllostomidae","Frugivore","Streblidae","REGArea","F4",52.11,362.4913792,6557.559,"1","1","2","3",5.70348834965682,8.50180287501734,12.6789431674992,"Fragmented"
"Sample917_2","T23","Trichobius joblingi","F","Carollia perspicillata","F","ATGCGCAG","CTCTCTAT","HC",271117,61217,1.01,917,"Phyllostomidae","Frugivore","Streblidae","REGArea","F4",52.11,362.4913792,6557.559,"1","1","2","3",5.70348834965682,8.50180287501734,12.6789431674992,"Fragmented"
"Sample928","T23","Basilia juquiensis","M","Myotis riparius","F","GGACTCCT","AAGGAGTA","LC",21217,61217,0.52,928,"Vespertillionidae","Insectivore","Nycteribiidae","REGArea","F4",52.11,362.4913792,6557.559,"1","1","2","3",5.70348834965682,8.50180287501734,12.6789431674992,"Fragmented"
"Sample919_2","T23","Basilia juquiensis","M","Myotis nigricans","F","TAAGGCGA","CGTCTAAT","HC",291117,61217,2.42,919,"Vespertillionidae","Insectivore","Nycteribiidae","REGArea","F4",52.11,362.4913792,6557.559,"1","1","2","3",5.70348834965682,8.50180287501734,12.6789431674992,"Fragmented"
"Sample917_1","T23","Trichobius joblingi","M","Carollia perspicillata","F","TACGCTGC","TCTCTCCG","HC",271117,61217,0.83,917,"Phyllostomidae","Frugivore","Streblidae","REGArea","F4",52.11,362.4913792,6557.559,"1","1","2","3",5.70348834965682,8.50180287501734,12.6789431674992,"Fragmented"
"Sample925","T23","Paratrichobius longicrus","F","Artibeus lituratus","F","TAGGCATG","CTATTAAG","HC",121017,51217,1.91,925,"Phyllostomidae","Frugivore","Streblidae","REGArea","F4",52.11,362.4913792,6557.559,"1","1","2","3",5.70348834965682,8.50180287501734,12.6789431674992,"Fragmented"
"Sample942","T23","Strebla wiedemanni","M","Desmodus rotundus","M","TGCAGCTA","GTAAGGAG","LC",21217,61217,0.27,942,"Phyllostomidae","Sanguivore","Streblidae","REGArea","F4",52.11,362.4913792,6557.559,"1","1","2","3",5.70348834965682,8.50180287501734,12.6789431674992,"Fragmented"
"Sample951_1","T23","Strebla wiedemanni","F","Desmodus rotundus","M","TGCAGCTA","ACTGCATA","HC",21217,61217,0.67,951,"Phyllostomidae","Sanguivore","Streblidae","REGArea","F4",52.11,362.4913792,6557.559,"1","1","2","3",5.70348834965682,8.50180287501734,12.6789431674992,"Fragmented"
"Sample951_2","T23","Strebla wiedemanni","M","Desmodus rotundus","M","TGCAGCTA","AAGGAGTA","HC",21217,61217,1.33,951,"Phyllostomidae","Sanguivore","Streblidae","REGArea","F4",52.11,362.4913792,6557.559,"1","1","2","3",5.70348834965682,8.50180287501734,12.6789431674992,"Fragmented"
"Sample959","T23","Strebla wiedemanni","M","Desmodus rotundus","M","TGCAGCTA","CTAAGCCT","HC",21217,61217,0.73,959,"Phyllostomidae","Sanguivore","Streblidae","REGArea","F4",52.11,362.4913792,6557.559,"1","1","2","3",5.70348834965682,8.50180287501734,12.6789431674992,"Fragmented"
"Sample960_1","T23","Strebla guajiro","F","Carollia perspicillata","F","ATGCGCAG","TATCCTCT","LC",271117,61217,0.55,960,"Phyllostomidae","Frugivore","Streblidae","REGArea","F4",52.11,362.4913792,6557.559,"1","1","2","3",5.70348834965682,8.50180287501734,12.6789431674992,"Fragmented"
"Sample963_1","T23","Paratrichobius longicrus","M","Artibeus lituratus","M","TAGGCATG","GAGCCTTA","HC",121017,51217,1.28,963,"Phyllostomidae","Frugivore","Streblidae","REGArea","F4",52.11,362.4913792,6557.559,"1","1","2","3",5.70348834965682,8.50180287501734,12.6789431674992,"Fragmented"
"Sample965","T23","Paratrichobius longicrus","M","Artibeus lituratus","M","CTCTCTAC","TCGACTAG","HC",121017,51217,2.12,965,"Phyllostomidae","Frugivore","Streblidae","REGArea","F4",52.11,362.4913792,6557.559,"1","1","2","3",5.70348834965682,8.50180287501734,12.6789431674992,"Fragmented"
"Sample922","T23","Trichobius joblingi","F","Desmodus rotundus","M","CGATCAGT","TCTCTCCG","HC",21217,61217,0.81,922,"Phyllostomidae","Sanguivore","Streblidae","REGArea","F4",52.11,362.4913792,6557.559,"1","1","2","3",5.70348834965682,8.50180287501734,12.6789431674992,"Fragmented"
"Sample853_1","T23","Speiseria ambigua","M","Desmodus rotundus","M","CGATCAGT","AAGGAGTA","HC",21217,61217,0.61,853,"Phyllostomidae","Sanguivore","Streblidae","REGArea","F4",52.11,362.4913792,6557.559,"1","1","2","3",5.70348834965682,8.50180287501734,12.6789431674992,"Fragmented"
"Sample853_2","T23","Trichobius dugesioides","F","Desmodus rotundus","M","CGATCAGT","CTAAGCCT","HC",21217,61217,1.36,853,"Phyllostomidae","Sanguivore","Streblidae","REGArea","F4",52.11,362.4913792,6557.559,"1","1","2","3",5.70348834965682,8.50180287501734,12.6789431674992,"Fragmented"
"Sample929","T23","Megistopoda proxima","F","Sturnira lilium","F","GCTCATGA","CTAAGCCT","HC",41217,61217,0.75,929,"Phyllostomidae","Frugivore","Streblidae","REGArea","F4",52.11,362.4913792,6557.559,"1","1","2","3",5.70348834965682,8.50180287501734,12.6789431674992,"Fragmented"
"Sample937_1","T23","Strebla wiedemanni","F","Desmodus rotundus","M","TGCAGCTA","CTCTCTAT","HC",21217,61217,0.67,937,"Phyllostomidae","Sanguivore","Streblidae","REGArea","F4",52.11,362.4913792,6557.559,"1","1","2","3",5.70348834965682,8.50180287501734,12.6789431674992,"Fragmented"
"Sample937_2","T23","Strebla wiedemanni","M","Desmodus rotundus","M","TGCAGCTA","TATCCTCT","HC",21217,61217,0.61,937,"Phyllostomidae","Sanguivore","Streblidae","REGArea","F4",52.11,362.4913792,6557.559,"1","1","2","3",5.70348834965682,8.50180287501734,12.6789431674992,"Fragmented"
"Sample817","T25","Trichobius joblingi","F","Desmodus rotundus","F","TGCAGCTA","CGTCTAAT","HC",31217,61217,0.67,817,"Phyllostomidae","Sanguivore","Streblidae","REGArea","F10",228.78,480,405.114,"1","1","2","3",7.83781712667255,8.90689059560852,8.66218413256646,"Fragmented"
"Sample879_1","T25","Paratrichobius longicrus","F","Artibeus lituratus","F","CTCTCTAC","GCGTAAGA","HC",121017,51217,1.18,879,"Phyllostomidae","Frugivore","Streblidae","REGArea","F10",228.78,480,405.114,"1","1","2","3",7.83781712667255,8.90689059560852,8.66218413256646,"Fragmented"
"Sample821","T25","Basilia juquiensis","M","Myotis riparius","M","GGACTCCT","CTAAGCCT","LC",21217,61217,0.82,821,"Vespertillionidae","Insectivore","Nycteribiidae","REGArea","F10",228.78,480,405.114,"1","1","2","3",7.83781712667255,8.90689059560852,8.66218413256646,"Fragmented"
"Sample810_1","T25","Speiseria ambigua","F","Carollia perspicillata","F","ATGCGCAG","GTAAGGAG","HC",271117,61217,0.81,810,"Phyllostomidae","Frugivore","Streblidae","REGArea","F10",228.78,480,405.114,"1","1","2","3",7.83781712667255,8.90689059560852,8.66218413256646,"Fragmented"
"Sample882_1","T25","Trichobius joblingi","M","Carollia perspicillata","M","ATGCGCAG","CGTCTAAT","HC",271117,61217,1.44,882,"Phyllostomidae","Frugivore","Streblidae","REGArea","F10",228.78,480,405.114,"1","1","2","3",7.83781712667255,8.90689059560852,8.66218413256646,"Fragmented"
"Sample879_2","T25","Paratrichobius longicrus","M","Artibeus lituratus","F","CTCTCTAC","CTATTAAG","HC",121017,51217,0.99,879,"Phyllostomidae","Frugivore","Streblidae","REGArea","F10",228.78,480,405.114,"1","1","2","3",7.83781712667255,8.90689059560852,8.66218413256646,"Fragmented"
"Sample881_1","T25","Aspidoptera falcata","M","Sturnira lilium","M","ATCTCAGG","AAGGAGTA","HC",41217,61217,1.43,881,"Phyllostomidae","Frugivore","Streblidae","REGArea","F10",228.78,480,405.114,"1","1","2","3",7.83781712667255,8.90689059560852,8.66218413256646,"Fragmented"
"Sample878","T25","Paratrichobius longicrus","M","Artibeus lituratus","F","CTCTCTAC","CCTAGAGT","HC",121017,51217,0.86,878,"Phyllostomidae","Frugivore","Streblidae","REGArea","F10",228.78,480,405.114,"1","1","2","3",7.83781712667255,8.90689059560852,8.66218413256646,"Fragmented"
"Sample885_4","T25","Strebla wiedemanni","F","Desmodus rotundus","M","TCGACGTC","GTAAGGAG","HC",31217,61217,1.03,885,"Phyllostomidae","Sanguivore","Streblidae","REGArea","F10",228.78,480,405.114,"1","1","2","3",7.83781712667255,8.90689059560852,8.66218413256646,"Fragmented"
"Sample886_1","T25","Strebla guajiro","M","Carollia perspicillata","M","ATGCGCAG","TCTCTCCG","HC",271117,61217,0.77,886,"Phyllostomidae","Frugivore","Streblidae","REGArea","F10",228.78,480,405.114,"1","1","2","3",7.83781712667255,8.90689059560852,8.66218413256646,"Fragmented"
"Sample885_2","T25","Strebla wiedemanni","M","Desmodus rotundus","M","TCGACGTC","CTCTCTAT","HC",31217,61217,0.8,885,"Phyllostomidae","Sanguivore","Streblidae","REGArea","F10",228.78,480,405.114,"1","1","2","3",7.83781712667255,8.90689059560852,8.66218413256646,"Fragmented"
"Sample881_3","T25","Aspidoptera falcata","","Sturnira lilium","M","ATCTCAGG","CGTCTAAT","HC",41217,61217,0.61,881,"Phyllostomidae","Frugivore","Streblidae","REGArea","F10",228.78,480,405.114,"1","1","2","3",7.83781712667255,8.90689059560852,8.66218413256646,"Fragmented"
"Sample898_1","T25","Strebla guajiro","F","Carollia perspicillata","F","TAGCGCTC","CTCTCTAT","HC",271117,61217,2.32,898,"Phyllostomidae","Frugivore","Streblidae","REGArea","F10",228.78,480,405.114,"1","1","2","3",7.83781712667255,8.90689059560852,8.66218413256646,"Fragmented"
"Sample868_2","T25","Aspidoptera falcata","F","Sturnira lilium","M","ATCTCAGG","GTAAGGAG","HC",41217,61217,0.88,868,"Phyllostomidae","Frugivore","Streblidae","REGArea","F10",228.78,480,405.114,"1","1","2","3",7.83781712667255,8.90689059560852,8.66218413256646,"Fragmented"
"Sample885_1","T25","Strebla wiedemanni","M","Desmodus rotundus","M","TGCAGCTA","TCTCTCCG","HC",31217,61217,1.18,885,"Phyllostomidae","Sanguivore","Streblidae","REGArea","F10",228.78,480,405.114,"1","1","2","3",7.83781712667255,8.90689059560852,8.66218413256646,"Fragmented"
"Sample885_3","T25","Strebla wiedemanni","M","Desmodus rotundus","M","TCGACGTC","TATCCTCT","HC",31217,61217,0.77,885,"Phyllostomidae","Sanguivore","Streblidae","REGArea","F10",228.78,480,405.114,"1","1","2","3",7.83781712667255,8.90689059560852,8.66218413256646,"Fragmented"
"Sample869_1","T25","Trichobius joblingi","F","Carollia perspicillata","M","ATGCGCAG","CTAAGCCT","HC",271117,61217,0.59,869,"Phyllostomidae","Frugivore","Streblidae","REGArea","F10",228.78,480,405.114,"1","1","2","3",7.83781712667255,8.90689059560852,8.66218413256646,"Fragmented"
"Sample506_2","T26","Aspidoptera falcata","F","Sturnira lilium","F","CGAGGCTG","TTATGCGA","HC",41217,51217,1.18,506,"Phyllostomidae","Frugivore","Streblidae","REGArea","F1",21.15,600,3748.024,"1","1","2","3",4.40258575823259,9.22881869049588,11.8719144758049,"Fragmented"
"Sample510","T26","Speiseria ambigua","F","Carollia perspicillata","F","TAGCGCTC","CTAAGCCT","HC",291117,61217,0.63,510,"Phyllostomidae","Frugivore","Streblidae","REGArea","F1",21.15,600,3748.024,"1","1","2","3",4.40258575823259,9.22881869049588,11.8719144758049,"Fragmented"
"Sample504_1","T26","Trichobius joblingi","","Carollia perspicillata","F","TAGCGCTC","GTAAGGAG","LC",271117,61217,0.36,504,"Phyllostomidae","Frugivore","Streblidae","REGArea","F1",21.15,600,3748.024,"1","1","2","3",4.40258575823259,9.22881869049588,11.8719144758049,"Fragmented"
"Sample524_1","T26","Paratrichobius longicrus","F","Artibeus lituratus","F","CTCTCTAC","AAGGCTAT","HC",121017,51217,0.91,524,"Phyllostomidae","Frugivore","Streblidae","REGArea","F1",21.15,600,3748.024,"1","1","2","3",4.40258575823259,9.22881869049588,11.8719144758049,"Fragmented"
"Sample506_3","T26","Aspidoptera falcata","F","Sturnira lilium","F","AAGAGGCA","TTATGCGA","HC",41217,51217,1.07,506,"Phyllostomidae","Frugivore","Streblidae","REGArea","F1",21.15,600,3748.024,"1","1","2","3",4.40258575823259,9.22881869049588,11.8719144758049,"Fragmented"
"Sample509","T26","Trichobius joblingi","F","Carollia perspicillata","M","TAGCGCTC","AAGGAGTA","HC",291117,61217,3.73,509,"Phyllostomidae","Frugivore","Streblidae","REGArea","F1",21.15,600,3748.024,"1","1","2","3",4.40258575823259,9.22881869049588,11.8719144758049,"Fragmented"
"Sample558","T26","Trichobius joblingi","M","Carollia perspicillata","F","ACTGAGCG","CTCTCTAT","HC",291117,61217,1.56,558,"Phyllostomidae","Frugivore","Streblidae","REGArea","F1",21.15,600,3748.024,"1","1","2","3",4.40258575823259,9.22881869049588,11.8719144758049,"Fragmented"
"Sample524_2","T26","Paratrichobius longicrus","F","Artibeus lituratus","F","CTCTCTAC","GAGCCTTA","HC",121017,51217,1.39,524,"Phyllostomidae","Frugivore","Streblidae","REGArea","F1",21.15,600,3748.024,"1","1","2","3",4.40258575823259,9.22881869049588,11.8719144758049,"Fragmented"
"Sample528_2","T26","Aspidoptera falcata","","Sturnira lilium","F","GCGTAGTA","GTAAGGAG","HC",41217,51217,1.18,528,"Phyllostomidae","Frugivore","Streblidae","REGArea","F1",21.15,600,3748.024,"1","1","2","3",4.40258575823259,9.22881869049588,11.8719144758049,"Fragmented"
"Sample552","T26","Paraeuctenodes similis","M","Carollia perspicillata","F","TAGCGCTC","TCTCTCCG","HC",291117,61217,1.26,552,"Phyllostomidae","Frugivore","Streblidae","REGArea","F1",21.15,600,3748.024,"1","1","2","3",4.40258575823259,9.22881869049588,11.8719144758049,"Fragmented"
"Sample572","T26","Paratrichobius longicrus","M","Artibeus lituratus","F","CGAGGCTG","TCGACTAG","LC",121017,51217,0.41,572,"Phyllostomidae","Frugivore","Streblidae","REGArea","F1",21.15,600,3748.024,"1","1","2","3",4.40258575823259,9.22881869049588,11.8719144758049,"Fragmented"
